TEVEL2-3                
1 63218U 25052J   26068.64540225  .00020365  00000+0  69446-3 0  9991
2 63218  97.3994 324.7775 0004761 105.7353 254.4413 15.30377031 54855
STARLINK-34835          
1 65336U 25189P   26068.70016919  .00031046  00000+0  10560-2 0  9990
2 65336  53.1609 207.0333 0001282  75.1205 284.9938 15.30197170 31102
